#aV2007  9 20  0  0   .00000000      96 DD+AD WGS84 FIT  NGA
## 1445 345600.00000000   900.00000000 54363  .0000000000000
+   31     1  2  3  4  5  6  7  8  9 10 11 12 13 14 16 17 18
+         19 20 21 22 23 24 25 26 27 28 29 30 31 32  0  0  0
+          0  0  0  0  0  0  0  0  0  0  0  0  0  0  0  0  0
+          0  0  0  0  0  0  0  0  0  0  0  0  0  0  0  0  0
+          0  0  0  0  0  0  0  0  0  0  0  0  0  0  0  0  0
++         0  0  0  0  0  0  0  0  0  0  0  0  0  0  0  0  0
++         0  0  0  0  0  0  0  0  0  0  0  0  0  0  0  0  0
++         0  0  0  0  0  0  0  0  0  0  0  0  0  0  0  0  0
++         0  0  0  0  0  0  0  0  0  0  0  0  0  0  0  0  0
++         0  0  0  0  0  0  0  0  0  0  0  0  0  0  0  0  0
%c cc cc ccc ccc cccc cccc cccc cccc ccccc ccccc ccccc ccccc
%c cc cc ccc ccc cccc cccc cccc cccc ccccc ccccc ccccc ccccc
%f  0.0000000  0.000000000  0.00000000000  0.000000000000000
%f  0.0000000  0.000000000  0.00000000000  0.000000000000000
%i    0    0    0    0      0      0      0      0         0
%i    0    0    0    0      0      0      0      0         0
/*      NGA, ST. LOUIS,MO.                                  
/*   EPHEMERIS COMPUTED FROM  3 DAYS OF DATA                
/* CCCCCCCCCCCCCCCCCCCCCCCCCCCCCCCCCCCCCCCCCCCCCCCCCCCCCCCCC
/* CCCCCCCCCCCCCCCCCCCCCCCCCCCCCCCCCCCCCCCCCCCCCCCCCCCCCCCCC
*  2007  9 20 23 30   .00000000                                                 
P  1  13230.609576  15292.578211  17470.333059    153.976808                    
V  1 -21231.847442  -4479.804996  20171.068692       .026509                    
P  2 -13174.766056 -22064.770417  -7503.249742    137.962917                    
V  2   -273.766178  -9634.627782  29269.208518       .027677                    
P  3  21388.059325  11112.729248 -11756.922991    118.551865                    
V  3 -14766.834181   1421.804382 -25677.337726       .052537                    
P  4  -5207.363691 -25553.774726   3799.050570     -7.075433                    
V  4   4934.343580   3653.535717  31125.254659      -.030537                    
P  5 -19931.896007  13365.397562  10964.688312    405.883365                    
V  5   6078.682529 -13425.938167  26936.730289       .326170                    
P  6 -18943.401475   8944.911444 -16160.032408    244.538079                    
V  6 -20244.048316  -5850.170201  20229.941579      -.025161                    
P  7 -17452.564655  10142.637685 -16939.530980    -92.367679                    
V  7 -21700.452136  -5348.039361  18737.968713       .241070                    
P  8   1853.851518 -23436.080933 -12002.200409   -123.552282                    
V  8   6158.944769  14074.488520 -27221.437431      -.014857                    
P  9 -16214.566387  -3782.642230  20128.254896     88.592160                    
V  9  -8505.188284 -25515.783233 -11123.746556       .017085                    
P 10 -11193.907619 -10177.920791 -21946.430594    -74.663111                    
V 10  18949.591424 -20022.789736    -68.590259      -.194227                    
P 11  17891.684952    -53.653987  19582.149170     23.911864                    
V 11  10787.328340  22990.678944  -9423.194646       .004670                    
P 12 -20475.927627   6620.140487  15619.353953    -56.825956                    
V 12  11640.661302 -15997.406838  22235.021646      -.012890                    
P 13  18345.914776  -7363.378886 -17833.944306    207.958966                    
V 13  21458.750960   6382.381569  19578.850598       .029404                    
P 14    563.881085  14992.240815  22015.594670     42.654188                    
V 14 -26985.095845  -6020.287644   4716.013517       .023289                    
P 16   6320.910118  14731.701722 -21076.595143    176.784068                    
V 16 -18809.621005  19318.676080   7992.859370       .022016                    
P 17   1354.902988 -15261.593089  21719.705040     54.084411                    
V 17  26940.347584   5676.545725   2174.568712      -.011248                    
P 18 -17371.950727  19770.302492   1739.224683   -235.208169                    
V 18  -3872.236157   -900.454504 -31673.961478       .018337                    
P 19  25629.406862   7257.478546   -203.756217     66.508136                    
V 19  -1102.936632   2592.345365 -31595.033459       .024643                    
P 20  20876.258166 -10099.233590  12817.100080    -29.911802                    
V 20  -8849.863054  14129.922873  25380.205503      -.005787                    
P 21  -9026.231433  16617.294546 -18265.781871     78.157229                    
V 21  -8874.101722 -22171.458495 -16245.852281      -.002260                    
P 22  -7807.077594  21658.222857  13367.192101    198.380388                    
V 22 -13509.712211  10220.605049 -24792.765600       .010992                    
P 23  25095.012443  -1078.437528  -9056.841574    203.292663                    
V 23  10649.969670   4341.497960  29009.064125       .037996                    
P 24 -14290.716318   5487.941158 -21516.389921     32.170904                    
V 24  -7396.484692 -26802.413856  -1621.853805       .029007                    
P 25  10926.187953 -11525.414492 -20951.106531    443.818502                    
V 25  11618.909570  24847.227039  -7334.001255       .096247                    
P 26 -24859.477218  -9274.841023  -4630.394315     34.796718                    
V 26   5344.225096     50.836980 -31396.969222       .133192                    
P 27   6347.150494 -17705.311628 -18016.398404    136.361994                    
V 27  10641.977402  21898.175310 -17368.178161       .023818                    
P 28  10168.988447 -21953.088017  10889.833132     -7.246719                    
V 28  11071.343255  -8039.360764 -27754.751915      -.006915                    
P 29 -23207.068238 -10365.640199  -8180.134188      5.716413                    
V 29  10608.446435    696.570899 -29860.941444       .001880                    
P 30 -19191.669201  17447.566722   5126.764963     46.345161                    
V 30   1878.996530  -7464.972461  30602.575704       .012648                    
P 31   7564.932035  25393.985942   1298.859952      8.868287                    
V 31  -3081.969391   -458.737345  31815.560992      -.012877                    
P 32   2329.947919  17176.311825  20631.084480     67.781570                    
V 32 -18702.034782  16725.494284 -11958.864782       .163854                    
EOF
